{
    "links": {
        "self": "http://www.neowsapp.com/rest/v1/neo/3684736?api_key=iIulBulltgU6a56xZRHN4H3l9WmuAYTsLGpBGhQ2"
    },
    "id": "3684736",
    "neo_reference_id": "3684736",
    "name": "(2014 QH390)",
    "designation": "2014 QH390",
    "nasa_jpl_url": "http://ssd.jpl.nasa.gov/sbdb.cgi?sstr=3684736",
    "absolute_magnitude_h": 22.7,
    "estimated_diameter": {
        "kilometers": {
            "estimated_diameter_min": 0.0766575574,
            "estimated_diameter_max": 0.1714115092
        },
        "meters": {
            "estimated_diameter_min": 76.6575573531,
            "estimated_diameter_max": 171.4115092306
        },
        "miles": {
            "estimated_diameter_min": 0.0476327831,
            "estimated_diameter_max": 0.1065101409
        },
        "feet": {
            "estimated_diameter_min": 251.5011804664,
            "estimated_diameter_max": 562.3737359442
        }
    },
    "is_potentially_hazardous_asteroid": false,
    "close_approach_data": [
        {
            "close_approach_date": "2014-09-17",
            "close_approach_date_full": "2014-Sep-17 06:31",
            "epoch_date_close_approach": 1410935460000,
            "relative_velocity": {
                "kilometers_per_second": "3.7049193739",
                "kilometers_per_hour": "13337.7097461515",
                "miles_per_hour": "8287.5341475462"
            },
            "miss_distance": {
                "astronomical": "0.295720264",
                "lunar": "115.035182696",
                "kilometers": "44239121.61023768",
                "miles": "27488915.490652784"
            },
            "orbiting_body": "Earth"
        }
    ],
    "orbital_data": {
        "orbit_id": "7",
        "orbit_determination_date": "2017-04-06 08:38:59",
        "first_observation_date": "2014-08-20",
        "last_observation_date": "2014-09-29",
        "data_arc_in_days": 40,
        "observations_used": 24,
        "orbit_uncertainty": "7",
        "minimum_orbit_intersection": ".293826",
        "jupiter_tisserand_invariant": "3.366",
        "epoch_osculation": "2459000.5",
        "eccentricity": ".4616924303302293",
        "semi_major_axis": "2.399423758871934",
        "inclination": "6.334527942256621",
        "ascending_node_longitude": "331.3022933403011",
        "orbital_period": "1357.559456157448",
        "perihelion_distance": "1.291627972246257",
        "perihelion_argument": "29.6180917870908",
        "aphelion_distance": "3.507219545497612",
        "perihelion_time": "2459646.765840065755",
        "mean_anomaly": "188.6220899066915",
        "mean_motion": ".2651817556624553",
        "equinox": "J2000",
        "orbit_class": {
            "orbit_class_type": "AMO",
            "orbit_class_description": "Near-Earth asteroid orbits similar to that of 1221 Amor",
            "orbit_class_range": "1.017 AU < q (perihelion) < 1.3 AU"
        }
    },
    "is_sentry_object": false
}